STARLINK-1008           
1 44714U 19074B   25325.16141748  .00000724  00000+0  67503-4 0  9997
2 44714  53.0541 313.8179 0001515  89.9662 270.1501 15.06390531332393
STARLINK-1011           
1 44717U 19074E   25325.25002315  .00534757  13676-3  10067-2 0  9992
2 44717  53.0433 283.0775 0003567  71.1065 153.2740 16.00295615  5974
STARLINK-1012           
1 44718U 19074F   25325.00660808  .00001170  00000+0  97458-4 0  9995
2 44718  53.0551 314.5147 0001248  84.4097 275.7034 15.06385084332362
STARLINK-1017           
1 44723U 19074L   25324.98684573  .00038357  00000+0  19511-2 0  9991
2 44723  53.0529 309.8606 0004468  19.2145 340.9016 15.16490256332439
STARLINK-1019           
1 44724U 19074M   25325.25002315  .00055386  00000+0  90812-3 0  9996
2 44724  53.0540 309.2334 0001224  87.2541 159.5503 15.51937644  5840
STARLINK-1020           
1 44725U 19074N   25325.07479439 -.00000249  00000+0  21794-5 0  9996
2 44725  53.0542 334.2083 0001882  89.9301 270.1904 15.06399562332091
